#dP2024  6 16  0  0  0.00000000      96 __u+U IGS20 FIT  IAC
## 2319      0.00000000   900.00000000 60477 0.0000000000000
+   54   G02G03G04G05G06G07G08G09G10G11G12G13G14G15G16G17G18
+        G19G20G21G22G23G24G25G26G27G28G29G30G31G32R01R02R03
+        R04R05R07R08R09R11R12R13R14R15R16R17R18R19R20R21R22
+        R24R25R26  0  0  0  0  0  0  0  0  0  0  0  0  0  0
+          0  0  0  0  0  0  0  0  0  0  0  0  0  0  0  0  0
++         6  6  8  7  7  7  8  8  7  6  8  6  6  8  8  6  7
++         6  8  4  6  7  7  7  7  7  6  8  7  7  7  6  4  7
++         7  6  7  7  6  6  6  5  7  7  6  6  6  7  7  5  7
++         7  7  7  0  0  0  0  0  0  0  0  0  0  0  0  0  0
++         0  0  0  0  0  0  0  0  0  0  0  0  0  0  0  0  0
%c M  cc GPS ccc cccc cccc cccc cccc ccccc ccccc ccccc ccccc
%c cc cc ccc ccc cccc cccc cccc cccc ccccc ccccc ccccc ccccc
%f  0.0000000  0.000000000  0.00000000000  0.000000000000000
%f  0.0000000  0.000000000  0.00000000000  0.000000000000000
%i    0    0    0    0      0      0      0      0         0
%i    0    0    0    0      0      0      0      0         0
/* INFORMATION & ANALYSIS CENTER (IAC)      ULTRA-RAPID DATA
/* S/V CLOCKS ARE ALIGNED TO GNSS TIME                      
/* G:C1WC2W R:C1PC2P E:C1XC5X C:C2IC6I J:C1CC2S             
/* PCV:IGS20_2317 OL/AL:FES2004  NONE     YN ORB:CoN CLK:CoN
*  2024 06 16 21  0  0.00000000
PG02 -13039.393543  21427.480103  -7785.375121   -416.453493
PG03  -2444.393193  14693.787227 -22156.761909    416.653193
PG04  -2042.656592  24882.383065  -8847.634578    384.628201
PG05  18306.361190  -7345.493757  17646.109204   -176.558198
PG06  18458.193680    661.965054 -19068.935359    214.722559
PG07   4317.372707  16231.081886  20998.638006    -91.260481
PG08  -8361.743294  17981.246725  17348.852929    232.927377
PG09   7704.424764  25241.052732   2648.389816    237.367243
PG10 -24127.640695 -10888.939335   3969.563870    -44.388856
PG11  22730.395565 -10405.520920  -8868.275841   -686.863198
PG12   5920.981765 -14117.091569 -21985.188333   -514.665390
PG13  13419.506367  -9780.852817  20462.152767    658.390437
PG14  21965.314779  13385.021343   7093.162877    427.045287
PG15   6032.190647 -19214.657598  16719.310008    170.897722
PG16 -21335.188740   2562.908193  15561.157364   -262.409745
PG17  12718.017534  17626.613416 -14735.504449    693.528044
PG18  -4121.268209 -15409.556832  21211.132397   -625.773700
PG19  14924.127679   9016.051317 -20323.577973    497.388419
PG20  24392.300018  -3434.264092   9803.382102    373.766731
PG21 -16246.123767  20050.049960  -2736.087277    115.013856
PG22  24323.831664  10211.445224   -582.413759    -28.157519
PG23 -16594.021539 -15124.225803  14371.369369    251.947821
PG24  13372.781680 -21777.736881  -6815.801460   -478.138656
PG25  -5735.629802 -16868.945773 -20111.837441    497.430686
PG26 -26238.911555  -3885.500525   3387.371891    135.846105
PG27 -13853.825610   6504.995388  21377.914369    -28.442456
PG28 -17307.817736  -2831.468233 -19956.084229   -291.833407
PG29  -3318.638235 -26284.469908      7.209128   -593.912133
PG30  14189.268123   8220.819521  21078.799321   -373.151577
PG31 -22412.119572   6777.973975 -13118.458816   -227.358082
PG32 -14685.152274 -15134.565663 -16053.834180   -616.008570
PR01  16983.133071  13050.749499  13869.282928     88.606227
PR02  11130.773694  -2309.374200  22874.709399    -23.318542
PR03   -570.701488 -17178.171636  18918.898412    102.212174
PR04 -11475.769595 -22275.818696   4832.661269    241.408300
PR05 -16312.914669 -15602.911867 -11886.245410    133.192407
PR07   1108.351822  17580.167267 -18386.693206     84.707801
PR08  11825.177523  22133.236892  -4428.900437     -5.043348
PR09 -23758.433360   5628.711666   7256.225070    192.593719
PR11   6355.822131  10289.085767  22475.257834     21.196380
PR12  22913.433324   3763.546284  10576.695660     41.394152
PR13  24750.885763  -3984.945725  -4717.741942    -48.410198
PR14  11165.386337 -10627.969502 -20313.662099     26.594195
PR15  -8031.352759 -10132.878726 -21962.416322     78.750773
PR16 -22809.878284  -3669.873108 -10755.336665     26.547208
PR17  10907.335500 -22952.836561   1925.385226     96.449347
PR18   1569.319601 -19122.429616  16842.913851    147.358378
PR19  -7650.323764  -7460.279829  23154.504738   -280.566412
PR20 -15478.911446  12833.603450  15673.924435   -114.624491
PR21 -11258.755433  22848.993905  -1631.494302   -109.834327
PR22   -984.268591  18525.609776 -17480.715010    101.850197
PR24  15198.713600 -13829.644217 -15089.925620    -60.117039
PR25 -11663.910484  22591.624847  -2206.649287    -60.701426
PR26  11262.196471  22150.290975  -5799.221923     -6.164318
*  2024 06 16 21 15  0.00000000
PG02 -13760.586967  21849.049679  -5028.279739   -416.447086
PG03  -4834.744105  13969.720634 -22222.279953    416.669179
PG04  -2493.256299  23786.158743 -11390.357199    384.635480
PG05  20154.898484  -6740.346589  15802.933683   -176.559034
PG06  16843.899826   2244.446224 -20383.311359    214.703435
PG07   2600.551728  17700.365650  20006.326754    -91.251142
PG08  -9088.362816  15992.505730  18891.927494    232.943549
PG09   7485.861893  25453.145561   -201.862555    237.380394
PG10 -23524.426029 -10869.695198   6767.107825    -44.396278
PG11  21989.040273  -9482.105199 -11408.167303   -686.870439
PG12   8203.044900 -13241.678151 -21789.094804   -514.668344
PG13  13719.215657  -7364.687042  21272.604867    658.393069
PG14  20980.258545  13336.463408   9684.349977    427.053529
PG15   7015.647826 -17340.395704  18283.224405    170.901699
PG16 -22850.576667   1780.900147  13459.195630   -262.400379
PG17  12799.301597  19263.074061 -12496.214428    693.522787
PG18  -2314.571133 -16948.685381  20272.691560   -625.778060
PG19  15126.488066  11214.550708 -19063.815886    497.393183
PG20  25325.459823  -3065.074734   7181.364673    373.766402
PG21 -16628.554468  19976.701063    177.404052    115.011538
PG22  24171.859744  10447.970775   2289.843036    -28.162123
PG23 -14871.938149 -14798.074539  16432.753579    251.956037
PG24  14020.386498 -21991.312730  -4085.364570   -478.140869
PG25  -3514.993564 -16329.230186 -21038.856588    497.431151
PG26 -26413.550830  -4239.127190    625.341508    135.840411
PG27 -14491.951811   4063.605161  21592.190455    -28.443642
PG28 -15723.639036  -4551.931210 -20925.814446   -291.848487
PG29  -3062.020813 -26164.821652  -2870.267132   -593.910578
PG30  12459.028370   9895.138443  21428.452021   -373.145995
PG31 -21361.611283   5586.521165 -15256.485637   -227.357819
PG32 -14936.471099 -16871.883668 -14003.040215   -616.007317
PR01  18001.252329  14219.022977  11176.327334     88.607123
PR02  12719.324278    -41.169185  22144.976684    -23.318747
PR03    742.378920 -15136.477527  20582.771322    102.213132
PR04 -11178.392730 -21529.852879   7933.641962    241.409570
PR05 -17170.852169 -16581.812959  -9008.801922    133.192333
PR07   -182.681695  15568.070392 -20148.446986     84.708926
PR08  11526.616573  21430.510639  -7539.857564     -5.043513
PR09 -24446.791015   5793.372093   4167.717471    192.595881
PR11   3566.276454  10535.974345  22969.770309     21.195229
PR12  21439.621899   3782.864177  13314.073341     41.394541
PR13  25121.056434  -4152.280208  -1543.941848    -48.410827
PR14  13552.840156 -10925.999799 -18637.147575     26.593845
PR15  -5279.949670 -10351.426909 -22682.521948     78.750071
PR16 -21304.604061  -3684.413188 -13489.623900     26.547120
PR17  10754.611020 -23067.776324  -1309.295156     96.452388
PR18   2283.594076 -20922.414337  14454.535602    147.360265
PR19  -6357.045484  -9976.629569  22591.020052   -280.567611
PR20 -14367.872329  11071.936566  17917.885505   -114.624644
PR21 -11076.058276  22939.145005   1603.823702   -109.837294
PR22  -1831.676363  20364.993356 -15222.718652    101.845994
PR24  14237.235119 -12066.055742 -17368.897783    -60.118852
PR25 -11566.884379  22726.780991   1002.775893    -60.730395
PR26  10869.441838  21318.050644  -8850.736611     -6.163630
EOF
